[{"OBJECT_NAME":"TK-2","OBJECT_ID":"2022-031A","EPOCH":"2026-03-09T22:51:17.143200","MEAN_MOTION":15.02943491,"ECCENTRICITY":0.00164117,"INCLINATION":97.8366,"RA_OF_ASC_NODE":263.9365,"ARG_OF_PERICENTER":100.3205,"MEAN_ANOMALY":259.9871,"EPHEMERIS_TYPE":0,"CLASSIFICATION_TYPE":"U","NORAD_CAT_ID":52150,"ELEMENT_SET_NO":999,"REV_AT_EPOCH":21555,"BSTAR":0.00040164474,"MEAN_MOTION_DOT":5.349e-5,"MEAN_MOTION_DDOT":0},{"OBJECT_NAME":"STARLINK-35018","OBJECT_ID":"2025-184R","EPOCH":"2026-03-09T16:45:02.727072","MEAN_MOTION":15.05656306,"ECCENTRICITY":0.00014479,"INCLINATION":97.6039,"RA_OF_ASC_NODE":122.6932,"ARG_OF_PERICENTER":84.7291,"MEAN_ANOMALY":275.4101,"EPHEMERIS_TYPE":0,"CLASSIFICATION_TYPE":"U","NORAD_CAT_ID":65288,"ELEMENT_SET_NO":999,"REV_AT_EPOCH":3130,"BSTAR":0.00048497413,"MEAN_MOTION_DOT":6.945e-5,"MEAN_MOTION_DDOT":0}]
